{
    "links": {
        "self": "http://www.neowsapp.com/rest/v1/neo/3836907?api_key=iIulBulltgU6a56xZRHN4H3l9WmuAYTsLGpBGhQ2"
    },
    "id": "3836907",
    "neo_reference_id": "3836907",
    "name": "(2018 XT4)",
    "designation": "2018 XT4",
    "nasa_jpl_url": "http://ssd.jpl.nasa.gov/sbdb.cgi?sstr=3836907",
    "absolute_magnitude_h": 26.5,
    "estimated_diameter": {
        "kilometers": {
            "estimated_diameter_min": 0.0133215567,
            "estimated_diameter_max": 0.0297879063
        },
        "meters": {
            "estimated_diameter_min": 13.3215566698,
            "estimated_diameter_max": 29.7879062798
        },
        "miles": {
            "estimated_diameter_min": 0.008277629,
            "estimated_diameter_max": 0.0185093411
        },
        "feet": {
            "estimated_diameter_min": 43.7058959846,
            "estimated_diameter_max": 97.7293544391
        }
    },
    "is_potentially_hazardous_asteroid": false,
    "close_approach_data": [
        {
            "close_approach_date": "2017-02-16",
            "close_approach_date_full": "2017-Feb-16 21:41",
            "epoch_date_close_approach": 1487281260000,
            "relative_velocity": {
                "kilometers_per_second": "18.7287814589",
                "kilometers_per_hour": "67423.6132518902",
                "miles_per_hour": "41894.4112453204"
            },
            "miss_distance": {
                "astronomical": "0.4747157234",
                "lunar": "184.6644164026",
                "kilometers": "71016461.076149158",
                "miles": "44127582.6895200604"
            },
            "orbiting_body": "Earth"
        },
        {
            "close_approach_date": "2018-12-12",
            "close_approach_date_full": "2018-Dec-12 06:01",
            "epoch_date_close_approach": 1544594460000,
            "relative_velocity": {
                "kilometers_per_second": "5.0615896148",
                "kilometers_per_hour": "18221.722613357",
                "miles_per_hour": "11322.269809394"
            },
            "miss_distance": {
                "astronomical": "0.0372868146",
                "lunar": "14.5045708794",
                "kilometers": "5578028.043244902",
                "miles": "3466025.9043155676"
            },
            "orbiting_body": "Earth"
        }
    ],
    "orbital_data": {
        "orbit_id": "1",
        "orbit_determination_date": "2018-12-15 10:42:05",
        "first_observation_date": "2018-12-14",
        "last_observation_date": "2018-12-15",
        "data_arc_in_days": 1,
        "observations_used": 19,
        "orbit_uncertainty": "8",
        "minimum_orbit_intersection": ".0216576",
        "jupiter_tisserand_invariant": "4.394",
        "epoch_osculation": "2458467.5",
        "eccentricity": ".3479310688633457",
        "semi_major_axis": "1.541339873343415",
        "inclination": "3.65951663350036",
        "ascending_node_longitude": "94.41636366224732",
        "orbital_period": "698.9498999048632",
        "perihelion_distance": "1.005059843729347",
        "perihelion_argument": "358.308019782525",
        "aphelion_distance": "2.077619902957484",
        "perihelion_time": "2458474.958395871444",
        "mean_anomaly": "356.1584907386276",
        "mean_motion": ".5150583754987318",
        "equinox": "J2000",
        "orbit_class": {
            "orbit_class_type": "APO",
            "orbit_class_description": "Near-Earth asteroid orbits which cross the Earth’s orbit similar to that of 1862 Apollo",
            "orbit_class_range": "a (semi-major axis) > 1.0 AU; q (perihelion) < 1.017 AU"
        }
    },
    "is_sentry_object": false
}